STARLINK-11160 [DTC]    
1 60125U 24118N   24196.58334491 -.00026200  00000+0 -15660-3 0  9991
2 60125  53.1658 316.3766 0000851 114.3257 163.2546 15.76726081  4366
STARLINK-31846          
1 60126U 24118P   24196.41668981 -.01746557  00000+0 -28613-1 0  9993
2 60126  53.1596 318.1103 0000980  85.9841 233.0492 15.55071555  4360
STARLINK-31840          
1 60127U 24118Q   24196.58334491 -.01744560  00000+0 -29252-1 0  9990
2 60127  53.1594 317.3030 0001262  68.0538 106.2100 15.54437732  4299
STARLINK-31813          
1 60128U 24118R   24196.58334491 -.01743058  00000+0 -29224-1 0  9991
2 60128  53.1595 317.2990 0001348  72.9774 103.2028 15.54436729  4309
STARLINK-31845          
1 60129U 24118S   24196.48727765 -.00107440  00000+0 -15913-2 0  9990
2 60129  53.1601 317.7590 0000671   7.7507 352.3515 15.54954168  3216
STARLINK-31838          
1 60130U 24118T   24195.91667824 -.01746695  00000+0 -26684-1 0  9996
2 60130  53.1588 320.5075 0001172  59.6977 346.4876 15.56939499  4156
STARLINK-31785          
1 60131U 24118U   24196.58334491 -.01742679  00000+0 -29217-1 0  9995
2 60131  53.1595 317.2911 0001359  73.1271 106.8852 15.54436510  4293
STARLINK-31792          
1 60132U 24118V   24196.58334491 -.00691865  00000+0 -40899-2 0  9995
2 60132  53.1651 316.1083 0000173 129.0440 278.7377 15.79231567  4290
GOES 19                 
1 60133U 24119A   24194.24981931 -.00000157  00000+0  00000+0 0  9999
2 60133   0.1204 264.0017 0045031 190.7477 170.5832  1.01420226   251
FALCON HEAVY R/B        
1 60134U 24119B   24195.97546193 -.00000097  00000+0  00000+0 0  9991
2 60134   4.3637  94.8347 3014896 180.8857 178.1932  1.51715813   285
STARLINK-32043          
1 60135U 24120A   24196.58334491 -.00854776  00000+0 -53062-2 0  9999
2 60135  53.1481 254.4314 0001147  72.4815 274.2160 15.78574794  3734
STARLINK-32112          
1 60136U 24120B   24196.25002315 -.00901165  00000+0 -54503-2 0  9997
2 60136  53.1480 256.0916 0000852  95.8660 157.0823 15.79270198  3915
STARLINK-32050          
1 60137U 24120C   24196.58334491 -.00860012  00000+0 -53473-2 0  9997
2 60137  53.1480 254.4220 0001116  67.1874 284.0294 15.78553484  3575
STARLINK-32025          
1 60138U 24120D   24196.58334491 -.00870195  00000+0 -54301-2 0  9992
2 60138  53.1480 254.4121 0001168  73.5201 282.4663 15.78500792  3686
STARLINK-31867          
1 60139U 24120E   24196.58334491 -.00864383  00000+0 -53855-2 0  9998
2 60139  53.1482 254.4171 0000895  73.6232 280.0169 15.78521863  3738
STARLINK-31694          
1 60140U 24120F   24196.58334491 -.00871680  00000+0 -54426-2 0  9993
2 60140  53.1479 254.4073 0001020  69.7077 288.5069 15.78492959  3950
STARLINK-32036          
1 60141U 24120G   24196.58334491 -.00871048  00000+0 -54367-2 0  9996
2 60141  53.1481 254.4031 0000778  61.2931 299.0259 15.78501262  3959
STARLINK-32031          
1 60142U 24120H   24196.58334491 -.00872934  00000+0 -54551-2 0  9997
2 60142  53.1480 254.3981 0000845  53.9468 308.7072 15.78478935  3951
STARLINK-32027          
1 60143U 24120J   24196.58334491 -.00856876  00000+0 -42091-2 0  9991
2 60143  53.1474 254.1156 0001312  70.0007  69.2968 15.83597417  3963
STARLINK-32033          
1 60144U 24120K   24196.58334491 -.00881055  00000+0 -55243-2 0  9992
2 60144  53.1482 254.3885 0000774  54.5737 312.8081 15.78427418  3737
STARLINK-32029          
1 60145U 24120L   24196.58334491 -.00887302  00000+0 -55753-2 0  9990
2 60145  53.1482 254.3835 0000706  65.3090 304.4678 15.78397792  3796
STARLINK-32127          
1 60146U 24120M   24196.58334491 -.00890134  00000+0 -55913-2 0  9996
2 60146  53.1479 254.3789 0001071  65.6398 306.2307 15.78409189  3738
STARLINK-32019          
1 60147U 24120N   24196.58334491 -.00892907  00000+0 -56219-2 0  9997
2 60147  53.1479 254.3737 0000769  59.9682 314.3614 15.78367516  3791
STARLINK-32021          
1 60148U 24120P   24196.58334491 -.00896960  00000+0 -56551-2 0  9990
2 60148  53.1481 254.3692 0000909  54.3124 322.3332 15.78347140  3956
STARLINK-32022          
1 60149U 24120Q   24196.25002315 -.00952739  00000+0 -58461-2 0  9991
2 60149  53.1477 256.0285 0001075  98.8705 184.2553 15.79088823  3919
STARLINK-32014          
1 60150U 24120R   24196.58334491 -.00901985  00000+0 -56897-2 0  9990
2 60150  53.1479 254.3602 0000768  65.2994 315.6681 15.78350454  3792
STARLINK-32004          
1 60151U 24120S   24196.58334491 -.00916059  00000+0 -58098-2 0  9994
2 60151  53.1479 254.3498 0001179  69.5427 316.3519 15.78265160  3956
STARLINK-32147          
1 60152U 24120T   24196.58334491 -.00908399  00000+0 -57478-2 0  9994
2 60152  53.1481 254.3550 0000739  64.0003 319.4813 15.78300078  3791
STARLINK-32131          
1 60153U 24120U   24196.58334491 -.00918318  00000+0 -58368-2 0  9996
2 60153  53.1479 254.3402 0000781  58.0202 332.4435 15.78226922  3954
STARLINK-32145          
1 60154U 24120V   24196.58334491 -.00915360  00000+0 -58105-2 0  9990
2 60154  53.1480 254.3452 0000807  62.0871 326.0784 15.78247215  3839
STARLINK-32137          
1 60155U 24120W   24196.58334491 -.00925700  00000+0 -58975-2 0  9995
2 60155  53.1479 254.3353 0001119  60.5263 332.3364 15.78191994  3806
STARLINK-32048          
1 60156U 24120X   24196.58334491 -.00926349  00000+0 -59040-2 0  9990
2 60156  53.1479 254.3305 0000797  62.2072 332.8432 15.78187855  3804
STARLINK-32129          
1 60157U 24120Y   24196.58334491 -.00928438  00000+0 -59223-2 0  9995
2 60157  53.1480 254.3258 0001015  48.3239 348.9816 15.78172906  3959
ZHONGXING-3A            
1 60179U 24122A   24195.72399997 -.00000298  00000+0  00000+0 0  9998
2 60179   0.0488 232.1963 0001392  97.9364 324.1563  1.00269009   263
CZ-7A R/B               
1 60180U 24122B   24196.00379327  .00243053 -21699-6  17652-2 0  9993
2 60180  15.5262 111.7906 7161039 190.7597 135.9091  2.49172384   365
ILLUMA-T                
1 60181U 98067WR  24196.27852492  .00020672  00000+0  36259-3 0  9991
2 60181  51.6377 181.0686 0011447  72.7688 287.4554 15.50455750  2275
ALOS-4 (DAICHI-4)       
1 60182U 24123A   24196.53455333  .00004379  00000+0  59187-3 0  9997
2 60182  97.8729 292.8315 0002504 118.7148 311.3647 14.79539822  1985
STARLINK-11168 [DTC]    
1 60183U 24124A   24196.58334491  .00200894  00000+0  12091-2 0  9997
2 60183  53.1564 256.1257 0001424 122.1283 294.1084 15.76607414  2979
STARLINK-11187 [DTC]    
1 60184U 24124B   24196.58334491 -.00772030  00000+0 -50337-2 0  9991
2 60184  53.1564 256.0700 0001115 104.3558 339.2718 15.77269748  2976
STARLINK-11180 [DTC]    
1 60185U 24124C   24196.58334491 -.01450296  00000+0 -88481-2 0  9991
2 60185  53.1561 256.0212 0001374  68.3528  39.1159 15.79466272  2973
STARLINK-11197 [DTC]    
1 60186U 24124D   24196.58334491 -.01449460  00000+0 -80984-2 0  9993
2 60186  53.1562 255.9809 0001266  48.5633  78.8606 15.81360511  2971
STARLINK-11194 [DTC]    
1 60187U 24124E   24196.58334491 -.01417175  00000+0 -72261-2 0  9991
2 60187  53.1561 255.9484 0001358  65.9912  77.3928 15.83231957  2980
STARLINK-11189 [DTC]    
1 60188U 24124F   24196.58334491 -.00081795  00000+0 -36216-3 0  9997
2 60188  53.1562 255.9212 0001003 130.4081  26.3966 15.83761050  2970
STARLINK-11183 [DTC]    
1 60189U 24124G   24196.58334491  .00152510  00000+0  66873-3 0  9992
2 60189  53.1559 255.8937 0000841  95.2074  74.8961 15.83690778  2767
STARLINK-11179 [DTC]    
1 60190U 24124H   24196.58334491 -.00519570  00000+0 -23556-2 0  9999
2 60190  53.1557 255.8679 0001140  86.4828  96.1327 15.84457789  2769
STARLINK-11175 [DTC]    
1 60191U 24124J   24196.58334491 -.00498814  00000+0 -21926-2 0  9996
2 60191  53.1558 255.8436 0000923  65.3911 129.0273 15.85050537  2968
STARLINK-11173 [DTC]    
1 60192U 24124K   24196.50001157 -.00518987  00000+0 -22163-2 0  9997
2 60192  53.1557 256.2410 0000779  84.0354   5.6723 15.85693842  2975
STARLINK-11172 [DTC]    
1 60193U 24124L   24196.58334491 -.00461157  00000+0 -19199-2 0  9997
2 60193  53.1557 255.7986 0001346  85.5540 130.7752 15.86074966  2920
STARLINK-11152 [DTC]    
1 60194U 24124M   24196.58334491 -.00447198  00000+0 -18178-2 0  9993
2 60194  53.1557 255.7777 0000886  82.5048 143.9922 15.86532204  2971
STARLINK-11193 [DTC]    
1 60195U 24124N   24196.58334491 -.00426397  00000+0 -16982-2 0  9993
2 60195  53.1556 255.7591 0001191  43.6603 191.9066 15.86896555  2985
STARLINK-31869          
1 60196U 24124P   24196.58334491 -.00976382  00000+0 -64897-2 0  9996
2 60196  53.1561 256.0238 0001395  67.4201  39.4255 15.77388556  2879
STARLINK-32023          
1 60197U 24124Q   24196.58334491 -.01020534  00000+0 -67202-2 0  9990
2 60197  53.1561 256.0127 0001313  62.9549  49.3266 15.77301836  2870
STARLINK-32046          
1 60198U 24124R   24196.58334491 -.00990309  00000+0 -66096-2 0  9996
2 60198  53.1561 256.0182 0001421  67.0490  42.6097 15.77334381  2872
STARLINK-32049          
1 60199U 24124S   24196.58334491 -.01038546  00000+0 -68779-2 0  9994
2 60199  53.1561 256.0063 0001390  68.4466  46.8609 15.77215344  2865
STARLINK-32002          
1 60200U 24124T   24196.58334491 -.01059532  00000+0 -70642-2 0  9997
2 60200  53.1564 256.0000 0001212  56.1556  62.2450 15.77115385  2926
STARLINK-32020          
1 60201U 24124U   24196.58334491 -.01073735  00000+0 -71798-2 0  9992
2 60201  53.1561 255.9945 0001283  64.6084  56.3639 15.77082395  2879
STARLINK-32041          
1 60202U 24124V   24196.58334491 -.01082351  00000+0 -72458-2 0  9991
2 60202  53.1559 255.9895 0001276  66.6774  56.6537 15.77076518  2972
2024-125A               
1 60203U 24125A   24190.56946133  .00010916  00000+0  51667-3 0  9992
2 60203  97.3213  43.3332 0025925 245.7203 167.8006 15.19219263   672
2024-125B               
1 60204U 24125B   24190.56452311  .00019288  00000+0  86635-3 0  9997
2 60204  97.3223  43.3417 0021463 231.7148 181.9989 15.20989274   668
2024-125C               
1 60205U 24125C   24190.56566853  .00012911  00000+0  58868-3 0  9998
2 60205  97.3217  43.3389 0021360 237.6174 176.1545 15.20564316   660
